NORAD_CAT_ID,OBJECT_NAME,OBJECT_TYPE,EPOCH,MEAN_MOTION,ECCENTRICITY,INCLINATION,RA_OF_ASC_NODE,ARG_OF_PERICENTER,MEAN_ANOMALY,BSTAR,MEAN_MOTION_DOT,MEAN_MOTION_DDOT,TLE_LINE0,TLE_LINE1,TLE_LINE2,SEMIMAJOR_AXIS,PERIOD,APOGEE,PERIGEE,DECAYED
55777.0,STARLINK-5814,PAYLOAD,2024-07-17 16:50:22,14.98332984,0.0002986,70.0013,297.122,267.0137,93.068,2.8516e-05,2.47e-06,0.0,0 STARLINK-5814,1 55777U 23028AN  24199.70164432  .00000247  00000-0  28516-4 0  9997,2 55777  70.0013 297.1220 0002986 267.0137  93.0680 14.98332984 76660,6950.184,96.107,574.124,569.973,0.0
55777.0,STARLINK-5814,PAYLOAD,2024-07-17 23:14:54,14.9835219,0.0003322,70.0005,296.4462,277.7359,82.3422,-0.00040886,-4.971e-05,0.0,0 STARLINK-5814,1 55777U 23028AN  24199.96868171 -.00004971  00000-0 -40886-3 0  9999,2 55777  70.0005 296.4462 0003322 277.7359  82.3422 14.98352190 76701,6950.124,96.106,574.298,569.68,0.0
55777.0,STARLINK-5814,PAYLOAD,2024-07-18 12:03:59,14.98323677,0.000307,70.0011,295.1012,271.0742,89.0066,-2.0885e-05,-3.42e-06,0.0,0 STARLINK-5814,1 55777U 23028AN  24200.50277338 -.00000342  00000-0 -20885-4 0  9997,2 55777  70.0011 295.1012 0003070 271.0742  89.0066 14.98323677 76782,6950.212,96.107,574.211,569.944,0.0
55777.0,STARLINK-5814,PAYLOAD,2024-07-18 13:40:07,14.98324965,0.0003028,70.0012,294.9331,269.994,90.0872,-1.8806e-05,-3.17e-06,0.0,0 STARLINK-5814,1 55777U 23028AN  24200.56953262 -.00000317  00000-0 -18806-4 0  9992,2 55777  70.0012 294.9331 0003028 269.9940  90.0872 14.98324965 76792,6950.208,96.107,574.178,569.969,0.0
55777.0,STARLINK-5814,PAYLOAD,2024-07-18 16:52:23,14.98329062,0.0002997,70.0011,294.5964,270.8541,89.2274,-1.0462e-05,-2.18e-06,0.0,0 STARLINK-5814,1 55777U 23028AN  24200.70304976 -.00000218  00000-0 -10462-4 0  9990,2 55777  70.0011 294.5964 0002997 270.8541  89.2274 14.98329062 76813,6950.196,96.107,574.144,569.978,0.0
55777.0,STARLINK-5814,PAYLOAD,2024-07-19 13:42:08,14.98329279,0.0002913,70.001,292.4083,268.885,91.1976,5.0529e-05,5.1e-06,0.0,0 STARLINK-5814,1 55777U 23028AN  24201.57092822  .00000510  00000-0  50529-4 0  9991,2 55777  70.0010 292.4083 0002913 268.8850  91.1976 14.98329279 76944,6950.195,96.107,574.085,570.036,0.0
55777.0,STARLINK-5814,PAYLOAD,2024-07-19 23:18:56,14.98334757,0.0002999,70.0009,291.3985,270.8312,89.2504,1.4784e-05,8.3e-07,0.0,0 STARLINK-5814,1 55777U 23028AN  24201.97148495  .00000083  00000-0  14784-4 0  9991,2 55777  70.0009 291.3985 0002999 270.8312  89.2504 14.98334757 77001,6950.178,96.107,574.128,569.959,0.0
55777.0,STARLINK-5814,PAYLOAD,2024-07-20 12:08:01,14.98327391,0.0003165,70.0008,290.0526,275.3855,84.6943,5.8226e-05,6.02e-06,0.0,0 STARLINK-5814,1 55777U 23028AN  24202.50556949  .00000602  00000-0  58226-4 0  9994,2 55777  70.0008 290.0526 0003165 275.3855  84.6943 14.98327391 77085,6950.201,96.107,574.266,569.866,0.0
55777.0,STARLINK-5814,PAYLOAD,2024-07-20 13:44:09,14.98329887,0.0003055,70.0006,289.8833,270.9521,89.1288,4.6699e-05,4.64e-06,0.0,0 STARLINK-5814,1 55777U 23028AN  24202.57232771  .00000464  00000-0  46699-4 0  9992,2 55777  70.0006 289.8833 0003055 270.9521  89.1288 14.98329887 77094,6950.193,96.107,574.182,569.935,0.0
55777.0,STARLINK-5814,PAYLOAD,2024-07-20 15:20:17,14.98331295,0.0003041,70.0006,289.715,270.9986,89.0825,6.2394e-05,6.52e-06,0.0,0 STARLINK-5814,1 55777U 23028AN  24202.63908637  .00000652  00000-0  62394-4 0  9999,2 55777  70.0006 289.7150 0003041 270.9986  89.0825 14.98331295 77109,6950.189,96.107,574.167,569.94,0.0
55777.0,STARLINK-5814,PAYLOAD,2024-07-21 12:10:02,14.98320852,0.0003317,70.0003,287.5242,270.6474,89.4305,-2.238e-05,-3.6e-06,0.0,0 STARLINK-5814,1 55777U 23028AN  24203.50697643 -.00000360  00000-0 -22380-4 0  9997,2 55777  70.0003 287.5242 0003317 270.6474  89.4305 14.98320852 77237,6950.221,96.108,574.392,569.781,0.0
55777.0,STARLINK-5814,PAYLOAD,2024-07-21 13:46:10,14.9832919,0.0003334,69.9997,287.3564,269.8471,90.2306,-6.5828e-05,-8.78e-06,0.0,0 STARLINK-5814,1 55777U 23028AN  24203.57373243 -.00000878  00000-0 -65828-4 0  9999,2 55777  69.9997 287.3564 0003334 269.8471  90.2306 14.98329190 77243,6950.195,96.107,574.378,569.743,0.0
55777.0,STARLINK-5814,PAYLOAD,2024-07-21 15:22:18,14.98331176,0.000331,69.9999,287.1883,270.0999,89.978,-3.7759e-05,-5.44e-06,0.0,0 STARLINK-5814,1 55777U 23028AN  24203.64049050 -.00000544  00000-0 -37759-4 0  9995,2 55777  69.9999 287.1883 0003310 270.0999  89.9780 14.98331176 77259,6950.189,96.107,574.355,569.754,0.0
55777.0,STARLINK-5814,PAYLOAD,2024-07-22 10:35:55,14.98329232,0.0003175,70.0004,285.1706,271.4722,88.6074,6.7495e-05,7.12e-06,0.0,0 STARLINK-5814,1 55777U 23028AN  24204.44160917  .00000712  00000-0  67495-4 0  9995,2 55777  70.0004 285.1706 0003175 271.4722  88.6074 14.98329232 77374,6950.195,96.107,574.267,569.854,0.0
55777.0,STARLINK-5814,PAYLOAD,2024-07-23 12:14:03,14.9833251,0.000321,70.0001,282.477,265.3689,94.7103,6.4962e-05,6.82e-06,0.0,0 STARLINK-5814,1 55777U 23028AN  24205.50976542  .00000682  00000-0  64962-4 0  9994,2 55777  70.0001 282.4770 0003210 265.3689  94.7103 14.98332510 77538,6950.185,96.107,574.281,569.819,0.0
55777.0,STARLINK-5814,PAYLOAD,2024-07-24 09:03:49,14.9832722,0.0003279,69.9997,280.2881,270.1277,89.9507,-7.5175e-05,-9.9e-06,0.0,0 STARLINK-5814,1 55777U 23028AN  24206.37765271 -.00000990  00000-0 -75175-4 0  9997,2 55777  69.9997 280.2881 0003279 270.1277  89.9507 14.98327220 77660,6950.201,96.107,574.345,569.788,0.0
55777.0,STARLINK-5814,PAYLOAD,2024-07-25 05:53:33,14.98329093,0.0003606,69.9987,278.0989,274.8162,85.2585,-3.1343e-05,-4.67e-06,0.0,0 STARLINK-5814,1 55777U 23028AN  24207.24553049 -.00000467  00000-0 -31343-4 0  9990,2 55777  69.9987 278.0989 0003606 274.8162  85.2585 14.98329093 77790,6950.196,96.107,574.567,569.554,0.0
55777.0,STARLINK-5814,PAYLOAD,2024-07-25 09:05:49,14.98329996,0.0003516,69.999,277.7625,273.6761,86.3996,-2.1931e-05,-3.55e-06,0.0,0 STARLINK-5814,1 55777U 23028AN  24207.37904964 -.00000355  00000-0 -21931-4 0  9998,2 55777  69.9990 277.7625 0003516 273.6761  86.3996 14.98329996 77812,6950.193,96.107,574.502,569.614,0.0
55777.0,STARLINK-5814,PAYLOAD,2024-07-25 15:30:21,14.98333411,0.0003198,69.9997,277.0902,269.6311,90.4482,8.1517e-06,4e-08,0.0,0 STARLINK-5814,1 55777U 23028AN  24207.64608616  .00000004  00000-0  81517-5 0  9999,2 55777  69.9997 277.0902 0003198 269.6311  90.4482 14.98333411 77859,6950.182,96.107,574.27,569.825,0.0
55777.0,STARLINK-5814,PAYLOAD,2024-07-26 09:07:50,14.98328557,0.0003137,69.9994,275.2376,269.5471,90.5328,5.35e-05,5.45e-06,0.0,0 STARLINK-5814,1 55777U 23028AN  24208.38044787  .00000545  00000-0  53500-4 0  9994,2 55777  69.9994 275.2376 0003137 269.5471  90.5328 14.98328557 77967,6950.197,96.107,574.243,569.882,0.0
55777.0,STARLINK-5814,PAYLOAD,2024-07-26 13:56:14,14.98331541,0.0003058,69.9999,274.7336,268.4053,91.6756,9.0326e-05,9.85e-06,0.0,0 STARLINK-5814,1 55777U 23028AN  24208.58072483  .00000985  00000-0  90326-4 0  9995,2 55777  69.9999 274.7336 0003058 268.4053  91.6756 14.98331541 77995,6950.188,96.107,574.178,569.928,0.0
55777.0,STARLINK-5814,PAYLOAD,2024-07-27 05:57:34,14.98336985,0.0003135,69.9996,273.0501,268.6135,91.4665,4.1962e-05,4.08e-06,0.0,0 STARLINK-5814,1 55777U 23028AN  24209.24832059  .00000408  00000-0  41962-4 0  9994,2 55777  69.9996 273.0501 0003135 268.6135  91.4665 14.98336985 78093,6950.171,96.107,574.215,569.857,0.0
55777.0,STARLINK-5814,PAYLOAD,2024-07-27 09:09:50,14.98336929,0.000314,69.9996,272.7135,268.6068,91.4731,3.9981e-05,3.84e-06,0.0,0 STARLINK-5814,1 55777U 23028AN  24209.38184002  .00000384  00000-0  39981-4 0  9998,2 55777  69.9996 272.7135 0003140 268.6068  91.4731 14.98336929 78118,6950.171,96.107,574.219,569.854,0.0
55777.0,STARLINK-5814,PAYLOAD,2024-07-27 13:58:14,14.98339308,0.0003125,69.9996,272.2086,268.6513,91.4288,6.3594e-05,6.66e-06,0.0,0 STARLINK-5814,1 55777U 23028AN  24209.58211672  .00000666  00000-0  63594-4 0  9994,2 55777  69.9996 272.2086 0003125 268.6513  91.4288 14.98339308 78140,6950.164,96.106,574.201,569.857,0.0
55777.0,STARLINK-5814,PAYLOAD,2024-07-28 04:23:28,14.98331929,0.0002714,70.0007,270.6941,275.6591,84.4259,-5.5509e-05,-7.55e-06,0.0,0 STARLINK-5814,1 55777U 23028AN  24210.18296361 -.00000755  00000-0 -55509-4 0  9998,2 55777  70.0007 270.6941 0002714 275.6591  84.4259 14.98331929 78236,6950.187,96.107,573.938,570.166,0.0
55777.0,STARLINK-5814,PAYLOAD,2024-07-28 14:00:16,14.98328969,0.0003242,69.9988,269.6825,267.9933,92.0855,-9.3733e-05,-1.211e-05,0.0,0 STARLINK-5814,1 55777U 23028AN  24210.58352605 -.00001211  00000-0 -93733-4 0  9995,2 55777  69.9988 269.6825 0003242 267.9933  92.0855 14.98328969 78294,6950.196,96.107,574.314,569.808,0.0
55777.0,STARLINK-5814,PAYLOAD,2024-07-29 04:25:28,14.98335818,0.0003288,69.9987,268.167,269.2404,90.8378,-6.5234e-05,-8.71e-06,0.0,0 STARLINK-5814,1 55777U 23028AN  24211.18436026 -.00000871  00000-0 -65234-4 0  9998,2 55777  69.9987 268.1670 0003288 269.2404  90.8378 14.98335818 78380,6950.175,96.107,574.325,569.755,0.0
55777.0,STARLINK-5814,PAYLOAD,2024-07-29 10:50:00,14.98338249,0.000327,69.9985,267.4942,264.9962,95.0824,-3.9048e-05,-5.59e-06,0.0,0 STARLINK-5814,1 55777U 23028AN  24211.45139676 -.00000559  00000-0 -39048-4 0  9996,2 55777  69.9985 267.4942 0003270 264.9962  95.0824 14.98338249 78423,6950.167,96.106,574.305,569.76,0.0
55777.0,STARLINK-5814,PAYLOAD,2024-07-29 20:26:48,14.98343896,0.0003529,69.9984,266.4844,266.7877,93.2879,-0.00021579,-2.668e-05,0.0,0 STARLINK-5814,1 55777U 23028AN  24211.85195543 -.00002668  00000-0 -21579-3 0  9997,2 55777  69.9984 266.4844 0003529 266.7877  93.2879 14.98343896 78484,6950.15,96.106,574.468,569.562,0.0
55777.0,STARLINK-5814,PAYLOAD,2024-07-30 04:27:30,14.9832389,0.0003303,69.9989,265.644,265.2741,94.8041,1.302e-05,6.2e-07,0.0,0 STARLINK-5814,1 55777U 23028AN  24212.18576405  .00000062  00000-0  13020-4 0  9991,2 55777  69.9989 265.6440 0003303 265.2741  94.8041 14.98323890 78532,6950.212,96.107,574.372,569.781,0.0
